{
    "links": {
        "self": "http://www.neowsapp.com/rest/v1/neo/3750659?api_key=iIulBulltgU6a56xZRHN4H3l9WmuAYTsLGpBGhQ2"
    },
    "id": "3750659",
    "neo_reference_id": "3750659",
    "name": "(2016 GK134)",
    "designation": "2016 GK134",
    "nasa_jpl_url": "http://ssd.jpl.nasa.gov/sbdb.cgi?sstr=3750659",
    "absolute_magnitude_h": 27.3,
    "estimated_diameter": {
        "kilometers": {
            "estimated_diameter_min": 0.0092162655,
            "estimated_diameter_max": 0.0206081961
        },
        "meters": {
            "estimated_diameter_min": 9.216265485,
            "estimated_diameter_max": 20.6081961232
        },
        "miles": {
            "estimated_diameter_min": 0.0057267201,
            "estimated_diameter_max": 0.0128053354
        },
        "feet": {
            "estimated_diameter_min": 30.2370924539,
            "estimated_diameter_max": 67.6121941689
        }
    },
    "is_potentially_hazardous_asteroid": false,
    "close_approach_data": [
        {
            "close_approach_date": "2016-04-09",
            "close_approach_date_full": "2016-Apr-09 11:57",
            "epoch_date_close_approach": 1460203020000,
            "relative_velocity": {
                "kilometers_per_second": "11.3194296409",
                "kilometers_per_hour": "40749.9467070708",
                "miles_per_hour": "25320.4321636241"
            },
            "miss_distance": {
                "astronomical": "0.0134345398",
                "lunar": "5.2260359822",
                "kilometers": "2009778.538510226",
                "miles": "1248818.4753480788"
            },
            "orbiting_body": "Earth"
        },
        {
            "close_approach_date": "2159-04-09",
            "close_approach_date_full": "2159-Apr-09 12:12",
            "epoch_date_close_approach": 5972789520000,
            "relative_velocity": {
                "kilometers_per_second": "12.2091190783",
                "kilometers_per_hour": "43952.828681956",
                "miles_per_hour": "27310.5784662965"
            },
            "miss_distance": {
                "astronomical": "0.0329434366",
                "lunar": "12.8149968374",
                "kilometers": "4928267.945840042",
                "miles": "3062283.7015628996"
            },
            "orbiting_body": "Earth"
        }
    ],
    "orbital_data": {
        "orbit_id": "4",
        "orbit_determination_date": "2017-04-06 08:26:44",
        "first_observation_date": "2016-04-04",
        "last_observation_date": "2016-04-09",
        "data_arc_in_days": 5,
        "observations_used": 26,
        "orbit_uncertainty": "8",
        "minimum_orbit_intersection": ".0132958",
        "jupiter_tisserand_invariant": "3.987",
        "epoch_osculation": "2457485.5",
        "eccentricity": ".4940670808514311",
        "semi_major_axis": "1.745995306782878",
        "inclination": "1.651876991639514",
        "ascending_node_longitude": "172.73495395",
        "orbital_period": "842.6806757702905",
        "perihelion_distance": ".8833565023803622",
        "perihelion_argument": "77.58657989233525",
        "aphelion_distance": "2.608634111185393",
        "perihelion_time": "2457525.903310479511",
        "mean_anomaly": "342.7393789951",
        "mean_motion": ".4272080876554167",
        "equinox": "J2000",
        "orbit_class": {
            "orbit_class_type": "APO",
            "orbit_class_description": "Near-Earth asteroid orbits which cross the Earth’s orbit similar to that of 1862 Apollo",
            "orbit_class_range": "a (semi-major axis) > 1.0 AU; q (perihelion) < 1.017 AU"
        }
    },
    "is_sentry_object": false
}